[{"norad_id":"65586","company":"STATIONS","tle_line2":"2 65586  51.6299 173.1600 0003550 211.9909 148.0864 15.49366390   272","launch_date":"2025-09-11","type":"LEO","tle_line1":"1 65586U 25204A   25340.54293258  .00014832  00000+0  27333-3 0  9993","satellite_name":"PROGRESS-MS 32"},{"norad_id":"65616","company":"STATIONS","tle_line2":"2 65616  51.6299 173.1600 0003550 211.9909 148.0864 15.49366390   221","launch_date":"2025-09-14","type":"LEO","tle_line1":"1 65616U 25208A   25340.54293258  .00014832  00000+0  27333-3 0  9991","satellite_name":"CYGNUS NG-23"},{"norad_id":"65729","company":"STATIONS","tle_line2":"2 65729  51.6246 170.5624 0006512 233.7397 126.2998 15.69233632 12097","launch_date":"1998-11-20","type":"LEO","tle_line1":"1 65729U 98067XH  25339.92998556  .00170954  00000+0  14111-2 0  9999","satellite_name":"DRAGONFLY"},{"norad_id":"65731","company":"STATIONS","tle_line2":"2 65731  51.6274 168.6505 0005602 208.5156 151.5533 15.64257956 12174","launch_date":"1998-11-20","type":"LEO","tle_line1":"1 65731U 98067XK  25340.54014432  .00122759  00000+0  12479-2 0  9999","satellite_name":"1998-067XK"},{"norad_id":"65732","company":"STATIONS","tle_line2":"2 65732  51.6248 167.9959 0006310 211.4337 148.6282 15.66703439 12196","launch_date":"1998-11-20","type":"LEO","tle_line1":"1 65732U 98067XL  25340.55552256  .00153185  00000+0  14056-2 0  9992","satellite_name":"RSP-03"},{"norad_id":"65733","company":"STATIONS","tle_line2":"2 65733  51.6264 166.7395 0006907 238.9064 121.1257 15.71789944 12211","launch_date":"1998-11-20","type":"LEO","tle_line1":"1 65733U 98067XM  25340.59214212  .00252273  00000+0  18514-2 0  9995","satellite_name":"GHS-01"},{"norad_id":"65941","company":"STATIONS","tle_line2":"2 65941  51.6277 174.2380 0002019 187.9006 172.1955 15.58286182  8793","launch_date":"1998-11-20","type":"LEO","tle_line1":"1 65941U 98067XN  25339.91729736  .00078420  00000+0  10119-2 0  9995","satellite_name":"YOTSUBA-KULOVER"},{"norad_id":"65942","company":"STATIONS","tle_line2":"2 65942  51.6268 174.2609 0004095 186.0920 174.0025 15.61079270  8789","launch_date":"1998-11-20","type":"LEO","tle_line1":"1 65942U 98067XP  25339.80843050  .00125200  00000+0  14405-2 0  9991","satellite_name":"BOTAN"},{"norad_id":"65943","company":"STATIONS","tle_line2":"2 65943  51.6291 174.5622 0003337 163.5442 196.5659 15.58235285  8789","launch_date":"1998-11-20","type":"LEO","tle_line1":"1 65943U 98067XQ  25339.85307693  .00076316  00000+0  98695-3 0  9992","satellite_name":"E-KAGAKU-1"},{"norad_id":"66052","company":"STATIONS","tle_line2":"2 66052  51.6285 172.3998 0004120 160.0329 200.0823 15.53538998  7878","launch_date":"1998-11-20","type":"LEO","tle_line1":"1 66052U 98067XR  25340.54125151  .00049118  00000+0  76055-3 0  9995","satellite_name":"HRC MONOBLOCK CAMERA"},{"norad_id":"66174","company":"STATIONS","tle_line2":"2 66174  51.6299 173.1600 0003550 211.9909 148.0864 15.49366390   513","launch_date":"2025-10-26","type":"LEO","tle_line1":"1 66174U 25241A   25340.54293258  .00014832  00000+0  27333-3 0  9998","satellite_name":"HTV-X1"},{"norad_id":"66515","company":"STATIONS","tle_line2":"2 66515  41.4777  54.6933 0006119 224.7336 135.3011 15.62039048  3453","launch_date":"2025-10-31","type":"LEO","tle_line1":"1 66515U 25246C   25340.40225589  .00039389  00000+0  43904-3 0  9995","satellite_name":"SZ-21 MODULE"}]