CCSDS_OMM_VERS = 2.0
CREATION_DATE  = 
ORIGINATOR     = 

OBJECT_NAME    = PROGRESS-MS 32
OBJECT_ID      = 2025-204A
CENTER_NAME    = EARTH
REF_FRAME      = TEME
TIME_SYSTEM    = UTC
MEAN_ELEMENT_THEORY = SGP/SGP4

EPOCH          = 2025-12-06T13:01:49.374912
MEAN_MOTION    = 15.49366390
ECCENTRICITY   = .00035502
INCLINATION    = 51.6299
RA_OF_ASC_NODE = 173.1600
ARG_OF_PERICENTER = 211.9909
MEAN_ANOMALY   = 148.0864

EPHEMERIS_TYPE = 0
CLASSIFICATION_TYPE = U
NORAD_CAT_ID   = 65586
ELEMENT_SET_NO = 999
REV_AT_EPOCH   = 27
BSTAR          = .27332684E-3
MEAN_MOTION_DOT = .14832E-3
MEAN_MOTION_DDOT = 0

CCSDS_OMM_VERS = 2.0
CREATION_DATE  = 
ORIGINATOR     = 

OBJECT_NAME    = CYGNUS NG-23
OBJECT_ID      = 2025-208A
CENTER_NAME    = EARTH
REF_FRAME      = TEME
TIME_SYSTEM    = UTC
MEAN_ELEMENT_THEORY = SGP/SGP4

EPOCH          = 2025-12-06T13:01:49.374912
MEAN_MOTION    = 15.49366390
ECCENTRICITY   = .00035502
INCLINATION    = 51.6299
RA_OF_ASC_NODE = 173.1600
ARG_OF_PERICENTER = 211.9909
MEAN_ANOMALY   = 148.0864

EPHEMERIS_TYPE = 0
CLASSIFICATION_TYPE = U
NORAD_CAT_ID   = 65616
ELEMENT_SET_NO = 999
REV_AT_EPOCH   = 22
BSTAR          = .27332684E-3
MEAN_MOTION_DOT = .14832E-3
MEAN_MOTION_DDOT = 0

CCSDS_OMM_VERS = 2.0
CREATION_DATE  = 
ORIGINATOR     = 

OBJECT_NAME    = DRAGONFLY
OBJECT_ID      = 1998-067XH
CENTER_NAME    = EARTH
REF_FRAME      = TEME
TIME_SYSTEM    = UTC
MEAN_ELEMENT_THEORY = SGP/SGP4

EPOCH          = 2025-12-05T22:19:10.752384
MEAN_MOTION    = 15.69233632
ECCENTRICITY   = .00065123
INCLINATION    = 51.6246
RA_OF_ASC_NODE = 170.5624
ARG_OF_PERICENTER = 233.7397
MEAN_ANOMALY   = 126.2998

EPHEMERIS_TYPE = 0
CLASSIFICATION_TYPE = U
NORAD_CAT_ID   = 65729
ELEMENT_SET_NO = 999
REV_AT_EPOCH   = 1209
BSTAR          = .14111437E-2
MEAN_MOTION_DOT = .170954E-2
MEAN_MOTION_DDOT = 0

CCSDS_OMM_VERS = 2.0
CREATION_DATE  = 
ORIGINATOR     = 

OBJECT_NAME    = 1998-067XK
OBJECT_ID      = 1998-067XK
CENTER_NAME    = EARTH
REF_FRAME      = TEME
TIME_SYSTEM    = UTC
MEAN_ELEMENT_THEORY = SGP/SGP4

EPOCH          = 2025-12-06T12:57:48.469248
MEAN_MOTION    = 15.64257956
ECCENTRICITY   = .00056029
INCLINATION    = 51.6274
RA_OF_ASC_NODE = 168.6505
ARG_OF_PERICENTER = 208.5156
MEAN_ANOMALY   = 151.5533

EPHEMERIS_TYPE = 0
CLASSIFICATION_TYPE = U
NORAD_CAT_ID   = 65731
ELEMENT_SET_NO = 999
REV_AT_EPOCH   = 1217
BSTAR          = .12478559E-2
MEAN_MOTION_DOT = .122759E-2
MEAN_MOTION_DDOT = 0

CCSDS_OMM_VERS = 2.0
CREATION_DATE  = 
ORIGINATOR     = 

OBJECT_NAME    = RSP-03
OBJECT_ID      = 1998-067XL
CENTER_NAME    = EARTH
REF_FRAME      = TEME
TIME_SYSTEM    = UTC
MEAN_ELEMENT_THEORY = SGP/SGP4

EPOCH          = 2025-12-06T13:19:57.149184
MEAN_MOTION    = 15.66703439
ECCENTRICITY   = .00063103
INCLINATION    = 51.6248
RA_OF_ASC_NODE = 167.9959
ARG_OF_PERICENTER = 211.4337
MEAN_ANOMALY   = 148.6282

EPHEMERIS_TYPE = 0
CLASSIFICATION_TYPE = U
NORAD_CAT_ID   = 65732
ELEMENT_SET_NO = 999
REV_AT_EPOCH   = 1219
BSTAR          = .14055646E-2
MEAN_MOTION_DOT = .153185E-2
MEAN_MOTION_DDOT = 0

CCSDS_OMM_VERS = 2.0
CREATION_DATE  = 
ORIGINATOR     = 

OBJECT_NAME    = GHS-01
OBJECT_ID      = 1998-067XM
CENTER_NAME    = EARTH
REF_FRAME      = TEME
TIME_SYSTEM    = UTC
MEAN_ELEMENT_THEORY = SGP/SGP4

EPOCH          = 2025-12-06T14:12:41.079168
MEAN_MOTION    = 15.71789944
ECCENTRICITY   = .0006907
INCLINATION    = 51.6264
RA_OF_ASC_NODE = 166.7395
ARG_OF_PERICENTER = 238.9064
MEAN_ANOMALY   = 121.1257

EPHEMERIS_TYPE = 0
CLASSIFICATION_TYPE = U
NORAD_CAT_ID   = 65733
ELEMENT_SET_NO = 999
REV_AT_EPOCH   = 1221
BSTAR          = .18513732E-2
MEAN_MOTION_DOT = .252273E-2
MEAN_MOTION_DDOT = 0

CCSDS_OMM_VERS = 2.0
CREATION_DATE  = 
ORIGINATOR     = 

OBJECT_NAME    = YOTSUBA-KULOVER
OBJECT_ID      = 1998-067XN
CENTER_NAME    = EARTH
REF_FRAME      = TEME
TIME_SYSTEM    = UTC
MEAN_ELEMENT_THEORY = SGP/SGP4

EPOCH          = 2025-12-05T22:00:54.491904
MEAN_MOTION    = 15.58286182
ECCENTRICITY   = .00020197
INCLINATION    = 51.6277
RA_OF_ASC_NODE = 174.2380
ARG_OF_PERICENTER = 187.9006
MEAN_ANOMALY   = 172.1955

EPHEMERIS_TYPE = 0
CLASSIFICATION_TYPE = U
NORAD_CAT_ID   = 65941
ELEMENT_SET_NO = 999
REV_AT_EPOCH   = 879
BSTAR          = .10118942E-2
MEAN_MOTION_DOT = .7842E-3
MEAN_MOTION_DDOT = 0

CCSDS_OMM_VERS = 2.0
CREATION_DATE  = 
ORIGINATOR     = 

OBJECT_NAME    = BOTAN
OBJECT_ID      = 1998-067XP
CENTER_NAME    = EARTH
REF_FRAME      = TEME
TIME_SYSTEM    = UTC
MEAN_ELEMENT_THEORY = SGP/SGP4

EPOCH          = 2025-12-05T19:24:08.395200
MEAN_MOTION    = 15.61079270
ECCENTRICITY   = .00040957
INCLINATION    = 51.6268
RA_OF_ASC_NODE = 174.2609
ARG_OF_PERICENTER = 186.0920
MEAN_ANOMALY   = 174.0025

EPHEMERIS_TYPE = 0
CLASSIFICATION_TYPE = U
NORAD_CAT_ID   = 65942
ELEMENT_SET_NO = 999
REV_AT_EPOCH   = 878
BSTAR          = .14404532E-2
MEAN_MOTION_DOT = .1252E-2
MEAN_MOTION_DDOT = 0

CCSDS_OMM_VERS = 2.0
CREATION_DATE  = 
ORIGINATOR     = 

OBJECT_NAME    = E-KAGAKU-1
OBJECT_ID      = 1998-067XQ
CENTER_NAME    = EARTH
REF_FRAME      = TEME
TIME_SYSTEM    = UTC
MEAN_ELEMENT_THEORY = SGP/SGP4

EPOCH          = 2025-12-05T20:28:25.846752
MEAN_MOTION    = 15.58235285
ECCENTRICITY   = .00033373
INCLINATION    = 51.6291
RA_OF_ASC_NODE = 174.5622
ARG_OF_PERICENTER = 163.5442
MEAN_ANOMALY   = 196.5659

EPHEMERIS_TYPE = 0
CLASSIFICATION_TYPE = U
NORAD_CAT_ID   = 65943
ELEMENT_SET_NO = 999
REV_AT_EPOCH   = 878
BSTAR          = .98694907E-3
MEAN_MOTION_DOT = .76316E-3
MEAN_MOTION_DDOT = 0

CCSDS_OMM_VERS = 2.0
CREATION_DATE  = 
ORIGINATOR     = 

OBJECT_NAME    = HRC MONOBLOCK CAMERA
OBJECT_ID      = 1998-067XR
CENTER_NAME    = EARTH
REF_FRAME      = TEME
TIME_SYSTEM    = UTC
MEAN_ELEMENT_THEORY = SGP/SGP4

EPOCH          = 2025-12-06T12:59:24.130464
MEAN_MOTION    = 15.53538998
ECCENTRICITY   = .00041207
INCLINATION    = 51.6285
RA_OF_ASC_NODE = 172.3998
ARG_OF_PERICENTER = 160.0329
MEAN_ANOMALY   = 200.0823

EPHEMERIS_TYPE = 0
CLASSIFICATION_TYPE = U
NORAD_CAT_ID   = 66052
ELEMENT_SET_NO = 999
REV_AT_EPOCH   = 787
BSTAR          = .76054716E-3
MEAN_MOTION_DOT = .49118E-3
MEAN_MOTION_DDOT = 0

CCSDS_OMM_VERS = 2.0
CREATION_DATE  = 
ORIGINATOR     = 

OBJECT_NAME    = HTV-X1
OBJECT_ID      = 2025-241A
CENTER_NAME    = EARTH
REF_FRAME      = TEME
TIME_SYSTEM    = UTC
MEAN_ELEMENT_THEORY = SGP/SGP4

EPOCH          = 2025-12-06T13:01:49.374912
MEAN_MOTION    = 15.49366390
ECCENTRICITY   = .00035502
INCLINATION    = 51.6299
RA_OF_ASC_NODE = 173.1600
ARG_OF_PERICENTER = 211.9909
MEAN_ANOMALY   = 148.0864

EPHEMERIS_TYPE = 0
CLASSIFICATION_TYPE = U
NORAD_CAT_ID   = 66174
ELEMENT_SET_NO = 999
REV_AT_EPOCH   = 51
BSTAR          = .27332684E-3
MEAN_MOTION_DOT = .14832E-3
MEAN_MOTION_DDOT = 0

CCSDS_OMM_VERS = 2.0
CREATION_DATE  = 
ORIGINATOR     = 

OBJECT_NAME    = SZ-21 MODULE
OBJECT_ID      = 2025-246C
CENTER_NAME    = EARTH
REF_FRAME      = TEME
TIME_SYSTEM    = UTC
MEAN_ELEMENT_THEORY = SGP/SGP4

EPOCH          = 2025-12-06T09:39:14.908896
MEAN_MOTION    = 15.62039048
ECCENTRICITY   = .00061192
INCLINATION    = 41.4777
RA_OF_ASC_NODE = 54.6933
ARG_OF_PERICENTER = 224.7336
MEAN_ANOMALY   = 135.3011

EPHEMERIS_TYPE = 0
CLASSIFICATION_TYPE = U
NORAD_CAT_ID   = 66515
ELEMENT_SET_NO = 999
REV_AT_EPOCH   = 345
BSTAR          = .43904376E-3
MEAN_MOTION_DOT = .39389E-3
MEAN_MOTION_DDOT = 0

